XW-2A                   
1 40903U 15049E   17346.51217233  .00002448  00000-0  63876-4 0  9992
2 40903  97.4063  14.3640 0014100 350.6930   9.4052 15.39746170125075
